name,address,mail,website,longitude,latitude
#Rosenwerk,"Jagdweg , 01159 Dresden, Deutschland", "vorstand@konglomerat.org", "http://www.konglomerat.org",,
360° - Raum für Kreativität,"Prerower Platz 10, 13051 Berlin, Deutschland", "info@360grad-lichtenberg.de", "http://www.360grad-lichtenberg.de",,
3D Druckzentrum Ruhr,"Schützenbahn , 45127 Essen, Deutschland", "kontakt@3d-druckzentrum-ruhr.de", "http://www.3d-druckzentrum-ruhr.de",,
3d-repairCafe.de,"Straße des 17. Juni, 10623 Berlin, Deutschland", "make-it@3d-repairCafe.de", "http://3d-repairCafe.de/makerspace",,
Abantu Kulturlabor,"Carl-Pulfrich-Str. 4, 07745 Jena, Deutschland", "lernwelten@gmx.de", "http://kulturlabor-jena.space",,
Akademie für Suffizienz,"Groß Pankower Weg 7, 16928 Reckenthin, Deutschland", "corinna.vosse@posteo.de", "http://www.akademie-suffizienz.de",,
Aktivitetshuset,"Norderstr. , 24939 Flensburg, Deutschland", "akti@sdu.de", "http://www.aktivitetshuset.de",,
Alte Gießerei Berlin e. V.,"Herzbergstraße 123, 10365 Berlin, Deutschland", "alte.giesserei.berlin@googlemail.com", "http://gies.se",,
Alte Seegrasspinnerei - OFFENE WERKSTATT,"Plochingerstr., 72622 Nürtingen, Deutschland", "juwe@tvfk.de", "http://tvfk.de",,
Atelier für Keramik,"Kaulbachstraße 26, Schwabing, 80539 München, Deutschland", "info@kinderkeramik.de", "http://www.kinderkeramik.de",,
Atelier im Sandkasten,"Seewiesstrasse 3, 9403 Goldach, Schweiz", "info@im-sandkasten.ch", "http://im-sandkasten.ch",,
atelier-micaela.de,"atelier-micaela, Glühwürmchenweg 4, 13589 Berlin-Spandau, 13589 Berlin, Deutschland", "atelier-micaela@gmx.de", "http://www.atelier-micaela.de",,
AtelierWerkstatt Machwerk e.V.,"Schulstr. 1, 80634 München, Deutschland", "mail@machwerk-muenchen.de", "http://www.machwerk-muenchen.de",,
Attraktor e.V.,"Eschelsweg 4, 1. Stock, 22767 Hamburg, Deutschland", "vorstand@attraktor.org", "http://www.attraktor.org",,
Ausbesserungswert Leverkusen e.V.,"c/o Haus der Jugend, Werkstättenstraße 39, ggü. Altes Kesselhaus, Neue Bahnstadt Opladen, 51379 Leverkusen, Deutschland", "info@ausbesserungswert.de", "http://www.ausbesserungswert.de",,
Awiro-Rostock,"Niklotstraße 5/6, 18057 Rostock, Deutschland", "awiro@systemausfall.org", "http://awiro.org",,
Backspace (Hackerspace Bamberg),"Spiegelgraben 41, 96052 Bamberg, Deutschland", "vorstand@hackerspace-bamberg.de", "https://www.hackerspace-bamberg.de",,
bastelbude Dinslaken,"Ziegelstrasse 122, 46539 Dinslaken, Deutschland", "no-mails-please@grade.de", "http://bastelbude.grade.de/",,
bauer+planer Entwurfswerkstatt,"Stockmeyerstr 45, 20457 Hamburg, Deutschland", "richter@bauer-planer.de", "http://www.bauer-planer.de",,
betahaus,"Prinzessinenstr. 19-20, 10969 Berlin, Deutschland", "kontact@betahaus.de", "http://www.betahaus.com/berlin/space/",,
Bike Kitchen Nürnberg,"Dagmarstr. 14, 90482 Nürnberg, Deutschland", "bikekitchen@rueckenwind-nuernberg.de", "http://bikekitchen.rueckenwind-nuernberg.de/",,
Bikekitchen Augsburg,"Bikekitchen Augsburg, c/o ADFC Augsburg e.V., Heilig-Kreuz-Str. 30, 86152 Augsburg, Deutschland", "bikekitchen_augsburg@gmx.de", "http://www.bikekitchen-augsburg.de/",,
Bikekitchen München,"Grafingerstr.6, Fach 28, 81671 München, Deutschland", "info@bikekitchen.de", "http://www.bikekitchen.de",,
Binary Kitchen,"Walderdorffstr. 13b, 93053  Regensburg, Deutschland", "vorstand@binary-kitchen.de", "http://www.binary-kitchen.de",,
Bonn im Wandel,"im Haus Müllestumpe, An der Rheindorfer Burg 22, 53117 Bonn, Deutschland", "info@bonn-im-wandel.de", "http://bonnimwandel.de/offene-werkstatt-repair-cafe/",,
brigk Makerspace,"Schollstraße 8, 85055 Ingolstadt, Deutschland", "makerspace@brigk.digital", "https://www.brigk.digital/makerspace",,
Brinke 26 e.V.,"Brinkstraße 26, 17489 Greifswald, Deutschland", "brinke26ev@posteo.de", "https://greifswa.sabic.uberspace.de/alternativwiki/doku.php?id=projekte:brinke",,
bukiprojekt:buchkinder werkstatt,"Treffpunkt Freizeit Am Neuen Garten 64, 14469 Potsdam, Deutschland", "bukiprojekt@gmx.de", "http://www.bukiprojekt.de",,
Bürgernetz Gera-Greiz e.V.,"An der Salzstraße , 07551 Gera, Deutschland", "kontakt@freifunk-gera-greiz.de", "https://www.buergernetz-gera-greiz.de/",,
Café Kaputt,"Merseburgerstraße 102, 04177 Leipzig, Deutschland", "cafekaputt@lebenlernenleipzig.de", "http://www.reparieren-in-leipzig.de",,
CCC HH,"Zeiseweg 9, 22765 Hamburg, Deutschland", "mail@hamburg.ccc.de", "http://hamburg.ccc.de",,
ChaosChemnitz,"Augustusburger Straße 102, 09126 Chemnitz, Deutschland", "kontakt@chaoschemnitz.de", "http://www.chaoschemnitz.de",,
ChaosStuff,"Halle Victor Hugo , Room 201 & 203 (2nd Floor) , 60 Avenue Victor Hugo , L-1750 Luxemburg, Luxemburginfo@c3l.lu", "http://chaosstuff.lu",,
Chaostreff Dortmund e.V.,"Braunschweiger Str 22, 44145 Dortmund, Deutschland", "presse@chaostreff-dortmund.de", "http://www.chaostreff-dortmund.de",,
CityLAB Berlin,"Platz der Luftbrücke 4, 12101  Berlin, Deutschland", "bildung@technologiestiftung-berlin.de", "https://www.citylab-berlin.org",,
cleverinside.de,"Dammstraße 72, 03222 Lübbenau, Deutschland", "cleverinside@jfvnet.de", "http://www.cleverinside.de",,
Code for Heilbronn e. V.,"Am Wollhaus 1, 74072  Heilbronn , Deutschland", "info@codeforheilbronn.de", "http://www.codeforheilbronn.de",,
ColorLabor,"ColorLabor, Tannenheckerweg 3, Siebdruckwerkstatt und mehr, 34127 Kassel, Deutschland", "colorlabor@dabei-kassel.de",,
CoMakingSpace,"Siemensstraße 40, 69123 Heidelberg, Deutschland", "info@comaking.space", "https://comakingspace.org/",,
coyote Druckwerkstatt/STUDIO114,"Friedrich-Engels-Straße 22, Haus 1, 14473 Potsdam, Deutschland", "hello@studio114.de", "http://www.studio114.de",,
Craftschoepferey,"Stedinger Landstraße 5 , 27751 Delmenhorst, Deutschland", "kurse@craftschoepferey.de", "https://www.craftschoepferey.de/offene-werkstatt/",,
Creapolis,"Schlachthofstraße 1, 96450  Coburg, Deutschland", "markus.neufeld@hs-coburg.de", "http://www.creapolis-coburg.de",,
creativhalle Neuss,"Hochhstadenstr. 13-17, 41469 Neuss, Deutschland", "creativhalle.de@gmail.com", "http://creativhalle.de",,
Cucula,"Marchlewskistraße 40, 10243 Berlin, Deutschland", "info@kinder-brauchen-matsch.de", "http://kinder-brauchen-matsch.de/aktuelles.html",,
DAI Makerspace,"Sofienstraße 12, 69115 Heidelberg, Deutschland", "makerspace@dai-heidelberg.de", "https://dai-heidelberg.de/de/bibliothek-usa-information/makerspace/",,
Das Habitat Augsburg e. V.,"Eberlestraße 29 - Haus B, 86157 Augsburg, Deutschland", "kontakt@das-habitat.de", "http://www.das-habitat.de",,
Der Radcontainer,"Prinzenstraße 35-38,, auf dem Gelände der Prinzessinnengärten, 10969 Berlin, Deutschland", "radcontainer@gmx.de", "http://radcontainer.blogsport.de/",,
Dezentrale Dortmund,"Dezentrale Dortmund, Richardstraße 18, 44137 Dortmund, Deutschland", "julia.krayer@umsicht.fraunhofer.de", "http://dezentrale-dortmund.de/",,
dezentrale e.V.,"Dreilindenstrasse 19, 04177 Leipzig, Deutschland", "vorstand@dezentrale.space", "https://dezentrale.space/",,
Die Blaue Blume e.V.,"Die Blaue Blume e.V., Fallenbrunnen 12/1, 88045 Friedrichshafen, Deutschland", "michael.henke@dieblaueblume.org", "http://www.dieblaueblume.org",,
Die GanzMacher e.V.,"Steinstraße 37, 02625 Bautzen, Deutschland", "kontakt@die-ganzmacher.de", "http://www.die-ganzmacher.de/",,
Die MachBar,"Kollektiv für wildes Denken und Machen, Die MACHBAR, Humperdinckstr. 16, 06844 Dessau-Roßlau, Deutschland", "machbar.dessau@gmail.com", "https://www.facebook.com/machbar.Dessau",,
die MOTTE e.V.,"Eulenstr. 43, 22765 Hamburg, Deutschland", "info@dieMOTTE.de", "http://www.dieMOTTE.de",,
Die Radgeber,"Leplaystraße 5, 04103 Leipzig, Deutschland", "post@radgeber-leipzig.de", "http://www.radgeber-leipzig.de",,
die urbanisten Manufaktur,"Rheinische Straße 137, 44147 Dortmund, Deutschland", "info@dieurbanisten.de", "https://dieurbanisten.de/aktionsfelder/manufaktur/",,
Die Werke Bonn - Fahrrad Selbsthilfe Werkstatt,"Heerstraße 205, 53111 Bonn, Deutschland", "rad-im-eimer@lists.posteo.de", "https://diewerkebonn.wordpress.com",,
Digitales Aachen e.V. (Digitac),"Digitales Aachen e.V., Martinstr. 10-12, 52062 Aachen, Deutschland", "vorstand@digitac.cc", "http://digitac.cc",,
Dingfabrik Köln,"Fritz-Voigt-Straße 1, 50823 Köln, Deutschland", "post@dingfabrik.de", "http://dingfabrik.de",,
DIY-Holzwerkstatt,"Am Volksgut 10, 04319 Leipzig, Deutschland", "info@diy-holzwerkstatt.de", "https://www.diy-holzwerkstatt.de",,
Do It Yourself Werkstatt Wilhelmshaven,"Do It Yourself Werkstatt Wilhelmshaven e.V., Kreuzstr. 54, 26382 Wilhelmshaven, Deutschland", "info@diyww.de", "http://www.diyww.de",,
DO!lab,"Lofererstr.12, 5760 Saalfelden, Österreich", "do@dolab.at", "http://www.dolab.at",,
Druckgrafisches Atelier,"Westermühlstraße 26, 80469 München, Deutschland", "info@druckgrafisches-atelier.de", "http://www.druckgrafisches-atelier.de",,
E-Werk Oschatz,"Lichtstrasse 1, 04758 Oschatz, Deutschland", "info@ewerk-oschatz.de", "http://www.ewerk-oschatz.de",,
ecocurious,"Kronenstraße 4, 72070 Tübingen, Deutschland", "we@ecocurious.de", "http://www.ecocurious.de",,
Eigenbaukombinat Halle e.V.,"Landsberger Straße 3, 06112 Halle (Saale), Deutschland", "info@eigenbaukombinat.de", "http://eigenbaukombinat.de",,
Fab Lab Berlin,"Open Innovation Space , Prenzlauer Allee 242, 10405 Berlin, Deutschland", "mail@fablab.berlin", "https://fablab.berlin",,
Fab Lab Fabulous St.Pauli e.V.,"Lerchenstr 16a, 22767 Hamburg, 22767 Hamburg, Deutschland", "vow@fablab-hamburg.org", "http://www.fablab-hamburg.org",,
FabLab Aachen,"RWTH Aachen University, Lehrstuhl Informatik 10, Ahornstraße, 52074 Aachen, Deutschland", "jan.thar@rwth-aachen.de", "http://hci.rwth-aachen.de/fablab",,
FabLab Bruchsal,"Werner-von-Siemens-Straße 2-6, 76646  Bruchsal, Deutschland", "verein@fablab-bruchsal.de", "http://www.fablab-bruchsal.de",,
FabLab Chemnitz,"Stadtfabrikanten e.V., Philippstrasse 13, 09130 Chemnitz, Deutschland", "Kontakt@stadtfabrikanten.org", "http://www.fablabchemnitz.de",,
FabLab Cottbus e.V.,"Walther-Pauer-Strasse 5, 03046 Cottbus, Deutschland", "info@fablab-cottbus.de", "http://www.fablab-cottbus.de",,
FabLab erfindergarden,"Tumblingerstr. 29, 80337 München, Deutschland", "play@erfindergarden.de", "http://www.erfindergarden.de",,
FabLab Frechen,"Hauptstrasse 27, 50226 Frechen, Deutschland", "info@fablab-frechen.de", "http://www.fablab-frechen.de",,
FabLab Freising e.V.,"c/o Bürgernetz Weihenstephan e.V., Gartenstraße 9, 85354 Freising, Deutschland", "info@fablab-freising.org",,
FabLab Hamm-Westfalen e.V.,"Banningstraße 15, 59067 Hamm, Deutschland", "info@fablab-hamm.de", "http://www.fablab-hamm.de",,
FabLab Hochschule Ruhr West,"Hochschule Ruhr West, Mellinghofer Straße 55, Gebäude 35, 45473 Mülheim an der Ruhr, Deutschland", "michael.schaefer@hs-ruhrwest.de", "http://fablab.hochschule-ruhr-west.de",,
FabLab Ingolstadt,"brigk Makerspace, Schollstraße 8, 85055 Ingolstadt, Deutschland", "info@fablab-ingolstadt.de", "http://www.fablab-ingolstadt.de",,
FabLab Karlsruhe e.V.,"FabLab Karlsruhe e.V., Alter Schlachthof 13a, 76131 Karlsruhe, Deutschland", "info@fablab-karlsruhe.de", "http://www.fablab-karlsruhe.de",,
FabLab Kiel,"Fraunhoferstraße 2-4, 24118 Kiel, Deutschland", "info@fablab.sh", "http://www.fablab.sh",,
FabLab Landkreis Fürth e. V.,"Siegelsdorfer Straße 24, 90587 Veitsbronn, Deutschland", "info@fablab-fuerth.de", "http://www.fablab-fuerth.de",,
FabLab Leipzig,"Hildegardstraße 51, 04315 Leipzig, Deutschland", "contact@fablab-leipzig.de", "http://www.fablab-leipzig.de",,
FabLab Lübeck,"Maria-Goeppert-Str. 1, 23562  Lübeck, Deutschland", "info@fablab-luebeck.de", "https://fablab-luebeck.de",,
FabLab Lüneburg e.V,"Fablab Lüneburg e.V., im e.novum, Munstermannskamp 1, 21335 Lüneburg, Deutschland", "hallo@fablab-lueneburg.org", "http://www.fablab-lueneburg.org",,
FabLab Lünen,"FabLab Mitmach-Werkstatt Lünen e.V., im Bürgerhaus Horstmar,, Lanstroper Str 6, 44532 Lünen, Deutschland", "info@fablab-luenen.de", "http://www.fablab-luenen.de",,
FabLab München e.V.,"Gewerbehof Westend, Gollierstraße 70, Eingang D, Erdgeschoss, Werkstatt und Bildungsräume, 80339 München, Deutschland", "info@fablab-muenchen.de", "http://www.fablab-muenchen.de",,
FabLab Münster,"Mendelstraße 11, 48149 Münster, Deutschland", "info@fablab-ms.de", "http://fablab-ms.de",,
FabLab Neckar-Alb e.V.,"Ulrichstraße 1, 72072 Tübingen, Deutschland", "info@fablab-neckar-alb.org", "https://www.fablab-neckar-alb.org/",,
FabLab Neuenstadt,"Öhringer Straße 24, 2 OG, 74196 Neuenstadt am Kocher, Deutschland", "soeren@oberndoerfer.de", "http://www.fablab-neuenstadt.de",,
FabLab Neustadt a.d. Aisch,"Spitalwall 16, 91438 Bad Windsheim, Deutschland", "team@jugendtreff-schneiderscheune.de", "http://www.fablab-nea.de/",,
Fablab Region Nürnberg,"Schwabacher Str. 512, 90763  Fürth, Deutschland", "info@fablab-nuernberg.de", "http://fablab-nuernberg.de",,
FabLab Rothenburg o.d.T. e.V.,"Deutschherrngasse 1, 91541  Rothenburg ob der Tauber, Deutschland", "vorstand@fablab-rothenburg.de", "http://www.fablab-rothenburg.de",,
FabLab Würzburg,"Veitshöchheimer-Str. 14, Eingang über Scanzonistr., 97080 Würzburg, Deutschland", "info@fablab-wuerzburg.de", "http://fablab-wuerzburg.de",,
FabLab-Bayreuth,"Ritter-von-Eitzenberger-Str. 19, 95448 Bayreuth, Deutschland", "soybaba@fablab-bayreuth.de", "http://www.fablab-bayreuth.de",,
FabLab-Bremen,"An der Weide 50a, 28195 Bremen, Deutschland", "info@fablab-bremen.org", "http://www.fablab-bremen.org",,
FabLab-Paderborn e.V.,"Schulze-Delitzsch-Strasse 16, 33100 Paderborn, Deutschland", "info@fablab-paderborn.de", "http://fablab-paderborn.de",,
FabLab-Siegen,"Kohlbettstr. 15, 57072 Siegen, Deutschland", "oliver.stickel@fablab-siegen.de", "http://www.fablab-siegen.de",,
FabLab-Thüringen,"An der Bundesstraße 3, 99706 Sondershausen / OT Oberspier, Deutschland", "info@fablab-thueringen.de", "http://www.fablab-thueringen.de",,
Fabmobil,"Jordanstrasse 16, 01099 Dresden, Deutschland", "sebastian@fabmobil.org", "http://www.fabmobil.org",,
Fabrique-Gängeviertel,"Valentinskamp, Caffamacherreihe, Speckstraße, 20355 Hamburg, Deutschland", "farbfabrique@das-gaengeviertel.info", "http://fabrique.das-gaengeviertel.info",,
FAHRbar,"Kaiserin-Augusta-Allee 98-100, 10553 Berlin, Deutschland", "fahrbar@moabiter-ratschlag.de", "http://moabiter-ratschlag.de/fahrbar",,
Fahrrad-und Verkehrs AG des AStA der TU Braunschweig,"Eulenstr. 5, 38114 Braunschweig, Deutschland", "info@fvag-bs.de", "http://www.fvag-bs.de/",,
Fahrradwerkstatt,"Kreutzerstr. 5-9, 50672 Köln, Deutschland", "ot@quaeker-nbh.de",,
Faradgang - Köln,"Koblenzer Str. 15, 50968 Köln, Deutschland", "mail@faradgang.de", "http://www.faradgang.de",,
Farbraum München,"Isartalstraße 44a, 80469 München, Deutschland", "kontakt@farbraum-münchen.de", "http://www.farbraum-münchen.de",,
FAU FABLAB,"Lehrstuhl für Informatik 3, c/o FAU FabLab, Martensstraße 3, 91058 Erlangen, Deutschland", "fablab-aktive@fablab.fau.de", "http://fablab.fau.de/",,
Filmhaus Köln,"Maybachstr. 111, 50670 Köln, Deutschland", "info@filmhaus.koeln", "http://www.filmhaus.koeln",,
Flicken? Berlin,"Waldemarstr. 57, 10997 Berlin, Deutschland", "info@flicken.berlin", "http://flicken.berlin/",,
flipdot hackerspace kassel,"Franz-Ulrich-Straße 18, 34117 Kassel, Deutschland", "com@flipdot.org", "http://flipdot.org/blog/",,
FLOW - Lernort Welt,"17268 Templin, Deutschland", "lernort-welt@web.de", "http://www.lernort-welt.de/",,
Frauenhandwerkstatt,"Elsässer Straße 4, 22049 Hamburg, Deutschland", "info@frauenhandwerkstatt.de", "http://www.frauenhandwerkstatt.de",,
Freies Labor Hildesheim,"Richthofenstr. 29, 31137 Hildesheim, Deutschland", "kontakt@freieslabor.org", "https://freieslabor.org",,
FREILab,"Ensisheimer Str. 4, 79110 Freiburg, Deutschland", "team@freilab.de", "http://www.freilab.de",,
Freiraum Hackerspace Ulm,"Platzgasse 18, 89073  Ulm, Deutschland", "vorstand@lists.hackerspace-ulm.de", "https://www.frrm.de",,
freischrauber*,"Friesenstrasse 124, 28203 Bremen, Deutschland", "freischrauber@posteo.de", "http://freischrauber.blogsport.de",,
FreiWerk Paderborn,"FreiWerk Paderborn, Königsplatz 10, 33098 Paderborn, Deutschland", "freiwerk-pb@posteo.de", "http://freiwerk-paderborn.de",,
GarageLab e.V.,"Rather Straße 25, 40476 Düsseldorf, Deutschland", "verein@garage-lab.de", "http://garage-lab.de",,
Gemeinschaftswerkstatt Spreisselwerk,"Leinestr. 20, 37574 Greene, Deutschland", "spreisselwerk@gelebteutopie.de", "https://gelebteutopie.de/spreisselwerk/",,
GESTA Aschaffenburg,"Haidstrasse 5, 63741 Aschaffenburg, Deutschland", "info@gesta-ev.de", "http://www.gesta-ev.de",,
GutAlaune,"Alaune 9, 06193 Petersberg, Deutschland", "gutalaune@riseup.net", "http://www.offene-werkstaetten.org/werkstatt/gutalaune",,
Hä?ppy Lab,"Tuchmacherstr. 18, 02625 Bautzen, Deutschland", "info@servicestelle-heimat.de", "https://servicestelle-heimat.de/projekte/haeppy-lab/",,
Habibi.Works,"2o klm E.O. KATSIKA - KOUTSELIO, ENANTI PALAIOU AERODROMIOU, ,, 45521 Katsikas, Ioannina, Griechenlandhello@habibi.works", "http://www.habibi.works",,
Hackerspace Bielefeld e.V.,"Sudbrackstr. 42, 33611 Bielefeld, Deutschland", "vorstand@hackerspace-bielefeld.de", "http://www.hackerspace-bielefeld.de",,
Hackerspace Bremen e.V.,"Bornstraße 14/15, 28195 Bremen, Deutschland", "info@hackerspace-bremen.de", "http://www.hackerspace-bremen.de",,
Hackerspace ffm,"Ludwig-Erhard-Str. 32 , 61440  Frankfurt, Deutschland", "public@hackerspace-ffm.de", "http://www.hackerspace-ffm.de",,
Hackerspace Saarbrücken,"St.-Josef-Straße 8, 66115 Saarbrücken, Deutschland", "offene-werkstaetten@hacksaar.de", "http://www.hacksaar.de",,
Hackerspace Turmlabor,"Helmholtzstr. 18
,
, , 01069 Dresden, Deutschland", "nachtsnochlicht@turmlabor.de", "http://www.turmlabor.de",,
Hacklabor,"Hagenower Straße 73, 19061  Schwerin, Deutschland", "inbox@hacklabor.de", "http://www.hacklabor.de",,
Hackspace Jena,"Krautgasse 26, 07743 Jena, Deutschland", "office@krautspace.de", "https://kraut.space",,
Hackspace Marburg,"Rudolf-Bultmann-Straße 2b, 35039 Marburg, Deutschland", "mail@hsmr.cc", "https://hsmr.cc",,
Hackspace Siegen,"Effertsufer 104, 57072 Siegen, Deutschland", "kontakt@hasi.it", "http://www.hasi.it",,
Hafven Coworking & Maker Space,"Kopernikusstr. 14, 30167 Hannover, Deutschland", "hallo@hafven.de", "http://hafven.de/makerspace/",,
Halle 36 e.V.,"Luisenstrasse 16, 14542 Werder, Deutschland", "info@halle36.org", "http://www.halle36.org",,
Hammertime Kassel,"Franz-Ulrich-Straße 16, 34117 Kassel, Deutschland", "hello@htks.de", "http://www.hammertimekassel.de",,
Happylab Berlin,"Demminer Straße 3, 13355 Berlin, Deutschland", "berlin@happylab.de", "http://www.happylab.de",,
Haus der Eigenarbeit,"Wörthstraße 42, 81667 München, Deutschland", "welcome@hei-muenchen.de", "http://www.hei-muenchen.de",,
Havelprater Lab,"HAVELPRATER
, Parkstrasse 1, 14798 Havelsee, Deutschland", "office@havelprater.com", "http://www.havelprater.com",,
haxko,"Koblenz,  Koblenz, Deutschland", "kontakt@haxko.space", "https://haxko.space/",,
Heart of Code,"Mariannenplatz 2 A, 10997 Berlin, Deutschland", "hello@heartofcode.org", "http://www.heartofcode.org",,
Hebewerk e.V.,"c/o Ingo Frost, Puschkinstraße 15, 16225 Eberswalde, Deutschland", "info@hebewerk-eberswalde.de", "http://www.hebewerk-eberswalde.de",,
Hemsbach repariert!,"Goethestrasse 34, 69502 Hemsbach, Deutschland", "info@hemsbach.net", "https://hemsbach.org/Reparieren",,
himmelsgrün malatelier,"Fuggerstraße 4-6, 81373 München, Deutschland", "post@himmelsgruen.de", "http://www.himmelsgruen.de",,
HOBBYHIMMEL,"Siemensstrasse 140, 70469 Stuttgart, Deutschland", "info@hobbyhimmel.de", "http://www.hobbyhimmel.de",,
HoFaLab,"Industriestraße 125-131, 21107  Hamburg, Deutschland", "info@hofalab.de", "http://www.hofalab.de",,
Holz- und Kunstwerkstatt des CDAD,"cdad / club der aktiven depressiven
, het kollektieftje / non-national & no-budget project
, c.o. Erik Kreutzmann
, Cloppenburger Strasse 35, 26135 Oldenburg, Deutschland", "info@papagena-musik.de", "http://www.tuer-harfen.de",,
holz.werk.stadt,"holz.werk.stadt, c/o Zentrum Aktiver Bürger , Gostenhofer Hauptstraße 63, 90443 Nürnberg, Deutschland", "holz.werk.stadt.90443@gmail.com", "https://www.facebook.com/Holz.Werk.Stadt.90443/",,
Holzhilfe,"An der Eisenbahn 2, 01099 Dresden, Deutschland", "werkstatt@holzhilfe.de", "http://www.holzhilfe.de",,
Holzkombinat,"Holzkombinat GbR
, Zöllnerstraße 18, 09111 Chemnitz, Deutschland", "info@holzkombinat.com", "http://holzkombinat.com",,
HolzOMA,"Wilhelmine-Gemberg-Weg 10 , 10179  Berlin, Deutschland", "info@oma-ggmbh.de", "http://omascafe.de/holzoma2/",,
Holzwerkstatt Gostenhof,"Adam-Klein-Straße 6, 90429 Nürnberg, Deutschland", "info@holzwerkstatt-gostenhof.de", "http://www.holzwerkstatt-gostenhof.de",,
Holzwerkstatt HausDrei,"Hospitalstr.107, 22767 Hamburg, Deutschland", "manfredtimpe@haus-drei.de", "http://www.haus-drei.de",,
Holzwerkstatt im Treffpunkt Freizeit,"Treffpunkt Freizeit
, Am Neuen Garten 64, 14469 Potsdam, Deutschland", "info@treffpunktfreizeit.de", "http://www.treffpunktfreizeit.de",,
Holzwerkstatt Regenbogenfabrik,"Lausitzer Str. 22, 10999 Berlin, Deutschland", "holz@regenbogenfabrik.de", "http://www.regenbogenfabrik.de/holz.html",,
Holzwerkstatt unartique,"nordhäuserstraße 23, 99089 Erfurt, Deutschland", "kontakt@unartique.eu", "http://www.unartique.eu",,
Holzwerkstättin KuBiZ Wallenberg,"Bernkasteler Str. 78, 13088 Berlin, Deutschland", "holzwerkstaettin@kubiz-wallenberg.de", "http://www.kubiz-wallenberg.de/?page_id=262&lang=de",,
Honigfabrik,"Industriestraße 125-131, 21107 Hamburg, Deutschland", "schulz.b@honigfabrik.de", "http://www.honigfabrik.de",,
Honolulu,"Georg-Schwarz-Straße 112, 04179 Leipzig, Deutschland", "honolulu@posteo.de", "http://www.honolululeipzig.blogspot.de",,
hubSchrauber,"Am Weidendamm 3, 10117 Berlin, Deutschland", "hubschrauber@refrat.hu-berlin.de", "http://www.refrat.hu-berlin.de/hubschrauber/",,
Ideenwerkstadt - Stuttgart,"Kegelenstr. 21, 70372 Stuttgart, Deutschland", "geschaeftsstelle@jugendhaus.net", "http://www.ideenwerkstadt.net",,
Illenau-Werkstätten e. V,"Illenauer Allee 54, 77855 Achern, Deutschland", "info@illenau-werkstaetten.de", "http://www.illenau-werkstaetten.de",,
Innovationswerkstatt Konstanz,"Blarerstr. 56, 78462 Konstanz, Deutschland", "kontakt@innovationswerkstatt.org", "http://www.innovationswerkstatt.org",,
IoT Lab,"Europaallee 12, 66113 Saarbrücken, Deutschland", "christina.krahl@ergosign.de",,
Jugendkulturhaus Dynamo,"Jugendkulturhaus Dynamo
, Wasserwerkstrasse 21, 8006 Zürich, Schweiz", "info@dynamo.ch", "http://www.dynamo.ch",,
Kabutze,"Friedrich-Loeffler-Straße 44a, 17489 Greifswald, Deutschland", "info@kabutze-greifswald.de", "http://www.kabutze-greifswald.de",,
Kalle,"Kornstraße 283, 28201 Bremen, Deutschland", "moin@kalle-co-werkstatt.de", "http://www.kalle-co-werkstatt.de",,
Kanal,"Kiefholzstr 74, 12057 Berlin, Deutschland", "kanal@squat.net", "https://kanal.squat.net/",,
Kanthaus," Kantstraße 20, 04808 Wurzen, hello@kanthaus.online", "https://kanthaus.online/de/projects/repaircafe",,
KAOS,"Wilhelminenhofstr. 92, 12459 Berlin, Deutschland", "info@kaosberlin.de", "http://www.kaosberlin.de",,
Keller 5 - die offene Fahrradwerkstatt,"Hauptstätter Straße 119-121, Hinterhaus, 70178 Stuttgart, Deutschland", "fahrradwerkstatt@freundeskreis-süd.de", "https://fkreissued.wordpress.com/keller-5-die-offene-fahrradwerkstatt/",,
Kempodium,"Untere Eicher Strasse 3, 87435 Kempten, Deutschland", "info@kempodium.de", "http://www.kempodium.de",,
KLAX - Kreativwerkstatt,"Schönhauser Allee 59, 10437 Berlin, Deutschland", "hallo@kreativ­werkstatt.de", "http://www.kreativwerkstatt.de",,
KlimaWerkStadt,"Westerstraße 58, 28199 Bremen, Deutschland", "info@klimawerkstadt-bremen.de", "http://www.klimawerkstadt-bremen.de",,
Kofferwerkstatt,"Hirschenstrasse 58, 90762 Fürth, Deutschland", "kofferwerkstatt@gmx.de", "https://kofferwerkstatt.wordpress.com",,
KoLab,"Uni Campus Koblenz, Universitätsstraße 1, Werkstatt F139, 56070 Koblenz, Deutschland", "kolab@uni-koblenz.de", "http://www.kolab-koblenz.de",,
KonRad,"Goethestr. 127 , 85055  Ingolstadt, Deutschland", "stadtteiltreff-konradviertel@ingolstadt.de", "https://www.in-kb.de/Leben-in-Ingolstadt/Planen-Bauen/Ingolstadt-baut/Soziale-Stadt/Konradviertel/Aktivitäten/index.php?La=1&NavID=465.699&object=tx,465.3519.1&kat=&kuo=2&sub=0",,
KreativGarage im Ackermannbogen,"Rosa-Aschenbrenner-Bogen 9, 80797 München, Deutschland", "kreativgarage@ackermannbogen-ev.de", "http://www.ackermannbogen-ev.de/gemeinschaftsraeume/kreativgarage.html",,
"Kreativlabor ""Teilen und Herrschen""","Posener Str. 22, 23552 Lübeck, Deutschland", "info@teilen-und-herschen.de", "http://teilen-und-herrschen.de",,
Kreativranch,"Höfen 6, 91522 Ansbach, Deutschland", "info@kreativranch.de", "http://www.kreativranch.de",,
Kreativwerkstatt ffm,"Hansaallee 150, 60320  Frankfurt am Main, Deutschland", "info@kreativwerkstatt-ffm.de", "http://www.kreativwerkstatt-ffm.de",,
"krimZkrams - Materialsammlung, offene Werkstatt, Workshops","Georg-Schwarz-Str. 7, 04177 Leipzig, Deutschland", "buero@kunzstoffe.de", "http://kunzstoffe.de",,
Kühlhaus Görlitz,"Am Bahnhof Weinhübel 2, 02827 Görlitz, Deutschland", "kontakt@kuehlhaus-goerlitz.de", "http://www.kuehlhaus-goerlitz.de",,
KULTUR BOTSCHAFT BERLIN LICHTENBERG ,"Herzbergstasse 53, 10365 Berlin, Deutschland", "tachelesart@gmail.com", "https://www.facebook.com/KulturbotschaftLichtenberg/",,
Kultur.Werkstatt Löbau,"c/o Löbaulebt e.V.
, Bahnhofs. 26
, 02708 Löbau, 02708 Löbau, Deutschland", "sylvio@loebaulebt.de", "http://www.loebaulebt.de",,
KulturlaborTrial & Error,"Karl-Kungerstr.55, 12435 Berlin, Deutschland", "email@trial-error.org", "http://www.trial-error.org",,
Kunst und Kultur Bastei e.V.,"Oberer Graben 55, 85049 Ingolstadt, Deutschland", "info@kunstundkulturbastei.de", "http://www.kunstundkulturbastei.de",,
Kunst Werk Stadt Berlin e.V,"Boddinstr.12, 12053 Berlin, Deutschland", "mail@kunstwerkstadt-berlin.de", "http://kunstwerkstadt-berlin.de/",,
Kunst-Stoffe - Zentralstelle für wiederverwendbare Materialien e.V.,"Berliner Strasse 17, 13189 Berlin, Deutschland", "info@kunst-stoffe-berlin.de", "http://www.kunst-stoffe-berlin.de",,
Kunstkollektiv Jaffe,"Jaffestraße 12, 21109 Hamburg, Deutschland", "kunstkollektiv.jaffe@gmail.com",,
Kunstwerk-Jena,"Zwätzengasse 13, 07743 Jena, Deutschland", "heike.burkhardt@online.de", "http://www.kunstwerk-jena.de/",,
Kunstwerkstatt Mohrvilla e.V.,"Situlistraße 75
, Rückgebäude, 80989 München, Deutschland", "info@mohr-kunst.de", "http://www.mohr-kunst.de",,
Kunstwerkstatt Samariterstraße e.V.,"Samariterstraße 24
, , 10247 Berlin, Deutschland", "info@kunstwerkstatt-samariterstrasse.de", "http://www.kunstwerkstatt-samariterstrasse.de",,
L1A Makerspace,"Kittlerstr.35, 64289 Darmstadt, Deutschland", "info@l1a.de", "http://www.l1a.de",,
Lab³,"64293 Darmstadt, Deutschland", "info@lab3.org", "http://lab3.org",,
LAMA97 Fahrradselbsthilfewerkstatt,"Langemarckstraße 97, , 79100 Freiburg, Deutschland", "radwerkstatt@jugendhilfswerk.de", "https://www.jugendarbeit-jhw.de/unsere-angebote/lama97/fahrradwerkstatt/",,
Land Leben Kunst Werk e.V.,"Geschwister-Scholl-Str. 25, 06780 Quetzdölsdorf, Deutschland", "info@landlebenkunstwerk.de", "http://www.landlebenkunstwerk.de",,
Landkombinat Gatschow,"Gatschow 22, 17111 Beggerow, Deutschland", "post@landkombinat.org", "http://www.landkombinat.org",,
Lastenrad-Container,"Karpfenteichstr. 13, 12435 Berlin, Deutschland", "info@werkstatt-lastenrad.de", "http://www.werkstatt-lastenrad.de/index.php?title=Berliner_Lastenrad-Netzwerk",,
LastenVelo Freiburg Selbsthilfewerkstatt,"Runzmattenweg 7, 79110 Freiburg im Breisgau, Deutschland", "selbsthilfewerkstatt@lastenvelofreiburg.de", "http://www.lastenvelofreiburg.de/selbsthilfewerkstatt/",,
Leinelab,"Glockseestr.35, 30169 Hannover, Deutschland", "anfragen@leinelab.org", "http://www.leinelab.org",,
Les Bricoleurs,"Hubelhüsistrasse 8, 3147 Mittelhäusern, Schweiz", "amadeus.wittwer@linux.com", "http://www.lesbricoleurs.ch/",,
Linienhof-offene Metallwerkstatt,"Karpfenteichstr. 13, 12435 Berlin, Deutschland", "li­ni­en­hof@ri­seup.net", "http://linienhof.blogsport.de",,
louloute,"Gollierstrasse 33, 80339 München, Deutschland", "salut@louloute.de", "https://www.louloute.de/",,
LutherLAB,"Alte Bahnhofstr. 166, 44892 Bochum, Deutschland", "info@lutherlab.de", "https://www.lutherlab.de",,
machBar im Würmtal,"Elisabethweg, 82152 Planegg, Deutschland", "Vorstand@machBar-im-Wuermtal.de", "https://partner.wuermtal.net/oww.html",,
Macherburg,"Porsestraße 19 (Gebäude 13), 39104  Magdeburg, Deutschland", "kontakt@macherburg.de", "https://macherburg.de/",,
Machwerk e.V.,"Willy-Brandt-Platz 6, 53773 Hennef, Deutschland", "kontakt@machwerk-hennef.de", "https://www.machwerk-hennef.de/",,
MachWerk-Eisenach,"Schmelzerstr. 20, 99817 Eisenach, Deutschland", "machwerkeisenach@gmail.com", "http://www.machwerkeisenach.de",,
MAGIE - Makerspace Giessen,"Georg-Philipp-Gail-Straße 5, 35394  Giessen, Deutschland", "info@flux-stadtimpulse.de", "http://flux-impulse.de/magie/",,
mainframe,"Bahnhofsplatz 10, 26122 Oldenburg, Deutschland", "vorstand@kreativitaet-trifft-technik.de", "http://www.kreativität-trifft-technik.de",,
Maker Austria,"Schönbrunner Straße 125, 1050 Wien, Österreich", "office@makeraustria.at", "http://www.makeraustria.at",,
Maker Lab Murnau,"James-Loeb-Str. 11, 82418 Murnau, Deutschland", "info@makerlab-murnau.de", "http://www.makerlab-murnau.de",,
Maker Pop e.V.,"Maker Pop e.V.
, Seltersweg 49
, , 35390 Gießen, Deutschland", "info@makerpop.de", "http://www.makerpop.de",,
Maker-Werkstadt Frankfurt,"Länderweg, 60599 Frankfurt am Main, Deutschland", "info@maker-werkstadt.de", "http://www.maker-werkstadt.de",,
Makerkutsche,"Dammstrasse 72, 03222 Lübbenau, Deutschland", "frank.thorhauer@awo-bb-sued.de", "http://www.makerkutsche.de",,
Makerspace Bocholt,"kommt bald, 46395 Bocholt, Deutschland", "bijkerk@gmx.de", "http://www.makerspace-bocholt.de",,
Makerspace Bonn,"Kennedyallee 18-20, 53175 Bonn, Deutschland", "hallo@makerspacebonn.de", "https://www.makerspacebonn.de",,
Makerspace Dachau,"Konrad-Adenauer-Straße 23, 85221  Dachau, Deutschland", "vorstand@dachauermaker.space", "https://dachauermaker.space/",,
Makerspace Darmstadt,"Hilpertstraße 31, 64295 Darmstadt, Deutschland", "info@makerspace-darmstadt.de", "http://makerspace-darmstadt.de",,
Makerspace der Stadtbibliothek Bielefeld,"Neumarkt 1, 33602  Bielefeld, Deutschland", "stadtbibliothek.makerspace@bielefeld.de", "https://www.stadtbibliothek-bielefeld.de/open/Portals/0/PDF/Flyer/FLY_Makerspace.", "https://stadtbibliothek-bielefeld.de/open/",,
Makerspace Gießen,"Walltorstraße 57, 35390 Gießen, Deutschland", "info@makerspcae-giessen.de", "https://makerspace-giessen.de/",,
Makerspace Gotha,"Buttermarkt 2, 99867 Gotha, Deutschland", "info@psxservice.com", "http://www.makerspace-gotha.de/",,
Makerspace Greifswald,"Friedrich-von-Hagenow-Straße 5, 17493 Greifswald, Deutschland", "findet-ihr-auf-der-webseite-wg.-spamschutz@greifswald.space", "https://www.greifswald.space",,
Makerspace Gütersloh,"Blessenstätte 1, 33330 Gütersloh, Deutschland", "info@makerspace-gt.de", "http://makerspace-gt.de",,
Makerspace Rhein-Neckar,"Am Bubenpfad 2, 67065 Ludwigshafen, Deutschland", "info@makerspace-rheinneckar.de", "http://www.makerspace-rheinneckar.de",,
Makerspace Südpfalz,"Klaus-von-Klitzing-Str. 2, 76829  Landau, Deutschland", "info@ztl.space", "https://ztl.space",,
Makerspace Viernheim,"Stadionstraße, 68519 Viernheim, Deutschland", "info@makerspace-viernheim.de", "http://www.makerspace-viernheim.de",,
Makerspace Wiesbaden,"Wandersmannstraße 60, 65205 Wiesbaden, Deutschland", "info@makerspace-wi.de", "http://www.makerspace-wi.de",,
Makerspace-Aurich,"Dornbuschweg 13, 26603 Aurich, Deutschland", "info@makerspace-aurich.de", "http://www.makerspace-aurich.de",,
Makerspace-Erfurt,"KrämerLoft GmbH & Co.KG
, z.H. Makerspace Erfurt
, Bahnhofstr. 16/ Büßleber Gasse, 99084 Erfurt, Deutschland", "info@makerspace-erfurt.de", "http://makerspace-erfurt.de",,
Makerspace-Hochschule-Niederrhein,"Raum: IE07
, Reinartzstr. 49, 47805 Krefeld, Deutschland", "makerspace@hs-niederrhein.de", "http://makerspace.hsnr.de",,
Makerspace-Kaarst,"Lindenplatz 6, 41464  Kaarst, Deutschland", "JC@Jugendcentrum.de", "https://www.facebook.com/makerspacekaarst/",,
Makerspace-Leipzig,"Bitterfelder Straße 5, 04129 Leipzig, Deutschland", "info@makerspace-leipzig.de", "http://www.makerspace-leipzig.de",,
Makertreff-Reutlingen,"Max-Plank-Strasse 68/1, 72766 Reutlingen, Deutschland", "vorstand@makertreff.org", "http://www.makertreff.org",,
Malwerkstatt Zwickau,"Reichenbacher Straße 23, 08056 Zwickau, Deutschland", "malwerkstatt.zwickau@t-online.de", "http://Malwerkstatt-Zwickau.jimdo.com",,
MANU - die offene Werkstatt,"Quireinerstr. 20 C, 39100 Bozen, Italieninfo@manu.bz.it", "http://www.manu.bz.it",,
MarbleArt,"Rövkampallee 43, 23714 Malente, Deutschland", "martina.burgert@web.de", "http://www.marbleart.de",,
Metallwerkstatt AJZ  Bielefeld,"Heeperstrasse 132
, 33607 bielefeld, 33607 bielefeld, Deutschland", "velobar@web.de", "http://ajz-bielefeld.de",,
MetroLab Berlin,"Sterkrader Str.44, 13507 Berlin, Deutschland", "MetroLab.Berlin@gmail.com", "https://berlin-metronom.de/metrolab-die-makerwerkstatt-im-metronom/",,
minitopia - Alternation e.V.,"Georg-Wilhelm-Strasse 322, 21107 Hamburg, Deutschland", "info@alternation.net", "http://www.minitopia.de",,
Mitmachwerkstatt Münsterland,"Borghof 6, 48366 Laer, Deutschland", "info@gutes-von-uns.de",,
Mode-Kollektiv,"Görlinger Zentrum 18
, , 50829  Köln, Deutschland", "dominik_siebel@icloud.com", "http://institut-fuer-weltgestaltung.de/",,
Montage-Café,"Rudolf-Breitscheid-Straße 38, 16816 Neuruppin, Deutschland", "s.fulz@estaruppin.de", "http://www.estaruppin.de/werkstatt-suedstadt/montage-cafe.html",,
Montagswerkstatt Leben im Sein,"Herrenweidestrasse 4, 4451 Garsten, Österreich", "montagswerkstatt@lebenimsein.at", "http://www.lebenimsein.at",,
Motion Lab,"Bouchéstrasse 12, 12435 Berlin, Deutschland", "info@motionlab.berlin", "https://motionlab.berlin/",,
Mr. und Mrs. Nähcafé,"Limpericher Straße 22, 53225 Bonn, Deutschland", "info@mrundmrs-naehcafe.de", "http://www.mrundmrs-naehcafe.de",,
Müllwerkstatt für Kinder,"Isabel Zinecker
, Erlengrund 2, 21335 Lüneburg, Deutschland", "info@muellwerkstatt.de", "http://www.muellwerkstatt.de",,
Munich Maker Lab,"Dachauer Str. 112 F, 80636 München, Deutschland", "info@munichmakerlab.de", "https://munichmakerlab.de",,
Musikhaus Ortel,"Neuhausgasse 6, 61169 Friedberg, Deutschland", "offene-werkstatt@musikhaus-ortel.de", "http://www.musik-ortel.de/werkstatt.php",,
Nachbarschafft e.V.,"Straße am Schoelerpark, 10715 Berlin, Deutschland", "info@nachbarschafft-ev.de", "http://www.nachbarschafft-ev.de",,
Nachbarschaftsgärten e.V.,"Josephstraße, 04177 Leipzig-Lindenau, Deutschland", "info@nachbarschaftsgaerten.de", "http://www.nachbarschaftsgaerten.de",,
Nachbarschaftswerkstatt der Baugemeinschaft Wunschnachbarn,"Auf dem Stahlseil, 50733 Köln, Deutschland", "werkstatt@wunschnachbarn.de", "https://wunschnachbarn.de/werkstatt",,
Naehpoint Wiesbaden,"Straße der Republik, 65203 Wiesbaden, Deutschland", "vdhanja@naehpoint.de", "http://www.naehpoint.de",,
Näh.Werk,"Jagdweg , 01159 Dresden, Deutschland", "hallo@naehwerk.org", "http://www.naehwerk.org",,
Nähbar im KUBA,"Am Bahnhof, 29456 Hitzacker, Deutschland", "okaydalang@freenet.de", "https://naehbarimkuba.wordpress.com/",,
Nähcafé Kiel,"Kieler Str. , 24223 Kiel, Deutschland", "info@naehcafe-kiel.de", "http://www.naehcafe-kiel.de",,
Nähcafe` Zeitlos,"Greizer Str. 47, 07937 Zeulenroda-Triebes, Deutschland", "info@deckennachmass.de", "https://www.facebook.com/Nähcafe-Zeitlos-659258484205402",,
Nähsalon,"Hauptstrasse, 91058 Erlangen, Deutschland", "info@naehsalon.com", "https://www.naehsalon-erlangen.de/offene-werkstatt/",,
Nähzimmer-Offene Schneiderei Werkstatt,"Hochstr., 47506 Neukirchen-Vluyn, Deutschland", "migration@tuwas-genossenschaft.de", "http://www.tuwas-genossenschaft.de/projekte/offene-werkstatt-naehzimmer.html",,
Nerdberg e.V,"Jakobinenstraße, 90762 Fürth, Deutschland", "vorstand@nerdberg.de", "http://nerdberg.de",,
Netz39,"Leibnizstraße, 39104 Magdeburg, Deutschland", "kontakt@netz39.de", "http://www.netz39.de",,
Netzbiotop e.V.,"Riesaer Str., 01127 Dresden, Deutschland", "mail@c3d2.de", "https://c3d2.de/unterstuetzen.html",,
Niemandsland,"Heerstraße, 40227 Düsseldorf, Deutschland", "info@niemandsland.org", "http://www.niemandsland.org",,
ob-ej-kt Die Werkstatt für Jedermann,"Schneiderstr. , 40764 Langenfeld, Deutschland", "info@ob-ej-kt.de", "http://www.ob-ej-kt.de",,
Oberlab,"Rudolf-Diesel-Ring, 83607 Holzkirchen, Deutschland", "info@oberlab.de", "http://www.oberlab.de",,
Offene Fahrradwerkstatt Isselburg (OFI),"Herzog-Adolph-Straße, 46419 Isselburg, Deutschland", "michael@ttisselburg.de", "http://www.ttisselburg.de/Fahrradwerkstatt.html",,
Offene Holzwerkstatt Borsdorf,"Industriestraße, 04451 Borsdorf, Deutschland", "pfeil-s@web.de",,
Offene Jugendwerkstatt Karlsruhe,"Hohenwettersbacherstr. 36, 76228 Grünwettersbach, Deutschland", "vorstand@offene-jugendwerkstatt.de", "http://www.offene-jugendwerkstatt.de",,
Offene Jugendwerkstatt St. Ingbert,"Alte Schmelz 66/64, 66386 St. Ingbert, Deutschland", "OJW-IGB@alte-schmelz.de", "http://alte-schmelz.org/mint-initiativen-igb/offene-jugendwerkstatt-ojw/",,
offene nachbarschaftswerkstatt WRG-Süd,"Gegend Hugo-Luther-Str., 38118 Braunschweig, Deutschland", "sch.egal@nirgendwo.info",,
Offene Werkstatt am Stadtwald,"Bonhoeffer-Str., 35037 Marburg, Deutschland", "team@ikjg.de", "http://ikjg.de/index.php?id=131",,
"Offene Werkstatt für Handwerk, Technik und Handarbeit","Frauenzentrum Cottbus e.V
, Thiemstr. 55, 03050 Cottbus, Deutschland", "mia@maedchentreff-cottbus.de", "http://www.maedchentreff-cottbus.de/werkstatt/",,
offene Werkstatt Gudwork,"Rat-Beil-Strasse, 60316 Frankfurt am Main, Deutschland", "gudwork@gmx.de", "http://www.gudwork.com",,
Offene Werkstatt im K.A.F.F,"Am Speicher, 49090 Osnabrück, Deutschland", "selbsthilfewerkstatt@freiraum-petersburg.de", "https://werkstattfueralle.wordpress.com/",,
Offene Werkstatt Karlsruhe," Karlsruhe, Deutschland", "kontakt@owka.de", "http://owka.de",,
Offene werkstatt Lutherplatz,"Lutherplatz, 13585 Berlin, Deutschland", "johannes@openberlin.org", "http://www.openberlin.org",,
offene Werkstatt Spremberg,"Am Markt, 03130 Spremberg, Deutschland", "kontakt@owspremberg.de", "https://owspremberg.de",,
Offene Werkstätte Weiz-Thannhausen,"Landscha, 8160 Thannhausen, Österreich", "andreas.proksch@kormans.at", "http://www.offene-werkstaette.at",,
Offene-Werkstatt-Freising,"Schwalbenweg, 85356 Freising, Deutschland", "info@einfach-selber-machen.org", "http://www.einfach-selber-machen.org",,
OK Werkstatt,"Glockengasse, 5020 Salzburg, Österreich", "ok.werkstatt@gmail.com", "http://www.ok-werkstatt.at",,
Open Source Ecology Germany e.V.,"Sandbergweg, 19306  Blievensdorf, Deutschland", "mail@ose-germany.de", "http://www.ose-germany.de",,
Open-Lab Hamburg,"Holstenhofweg, 22043 Hamburg, Deutschland", "tobias.redlich@hsu-hh.de", "http://www.openlab-hamburg.de",,
OpenLab Augsburg,"Elisenstraße, 86159 Augsburg, Deutschland", "kontakt@KEINSPAM.openlab-augsburg.de", "https://www.openlab-augsburg.de/",,
OW-BB-SIFI,"71000 Böblingen/Sindelfingen, Deutschland", "kontakt@owbbsifi.de", "http://www.owbbsifi.de",,
Papierwerk Glockenbach,"Auenstr., 80469 München, Deutschland", "info@papierwerk-glockenbach.de", "http://www.papierwerk-glockenbach.de",,
planraum makerspace,"Auweg, 93055 Regensburg, Deutschland", "kontakt@planraum.org", "http://planraum.org",,
Plattenladen Kollektiv,"Sonnenallee, 12059 Berlin, Deutschland", "fabi@schmidies.de", "http://plattenladenkollektiv.de/",,
PlatzProjekt,"Fössestraße, 30453 Hannover, Deutschland", "info@platzprojekt.de", "http://www.platzprojekt.de",,
polytechnischer Werkraum Zittau,"Innere Weberstr., 02763 Zittau, Deutschland", "werkraum@freiraumzittau.de", "http://werkraum.freiraumzittau.de",,
Protohaus,"Rebenring, 38116 Braunschweig, Deutschland", "info@protohaus.org", "http://www.protohaus.org",,
quellkollektiv,"Wandererstr. , 90431 Nürnberg, Deutschland", "info@quellkollektiv.net", "http://www.quellkollektiv.net",,
RABRYKA,"Bautzener Straße, 02826 Görlitz, Deutschland", "info@second-attempt.de", "https://www.rabryka.eu",,
Rad i.O.,"Wundtstraße, 01217 Dresden, Deutschland", "info@rad-i-o.org", "http://www.rad-i-o.org",,
Rad-Team Leibnitz-Gymnasium Essen,"Stankeitstraße, 45326 Essen, Deutschland", "leibniz-rad-ag@gmx.de", "http://www.leibniz-gymnasium-essen.de/news/101-ags/727-rad-team-leibniz-gymnasium-on-tour-erfolgreicher-rad-aktionstag-am-28-april-in-holsterhausen",,
Radküche Münze,"Münzweg, 20097 Hamburg, Deutschland", "info.muera@viertelzimmer.net",,
Raum.Wagen,"Kreuzweg, 4040 Linz, Österreich", "email@raumwagen.info", "http://www.raumwagen.info",,
Raumfahrtagentur,"Gerichtstr., 13347 Berlin, Deutschland", "info@raumfahrtagentur.org", "http://www.raumfahrtagentur.org",,
RaumZeitLabor e.V.,"Boveristraße, 68309 Mannheim, Deutschland", "info@raumzeitlabor.de", "http://raumzeitlabor.de",,
Repair Cafe Böblingen-Sindelfingen,"Friedrich-List-Str., 71032 Böblingen, Deutschland", "RepairCafe@posteo.de", "http://www.repaircafe-bb-sifi.de",,
Repair Café Leonberg,"Neuköllner Str., 71229 Leonberg, Deutschland", "info@repair-leonberg.de", "http://www.repair-leonberg.de",,
Repair Café Ochtrup / KGG St.Lambertus,"Professor-Gärtner-Straße, 48607 Ochtrup, Deutschland", "repaircafeochtrup@gmail.com",,
Rio Raum,"Asylstr., 92637 Weiden in der Oberpfalz, Deutschland", "rio.raum@web.de",,
Sailing Team Darmstadt e.V.,"Hochschulstraße, 64289 Darmstadt, Deutschland", "info@sailingteam.tu-darmstadt.de", "http://www.st-darmstadt.de",,
Schaffenburg,"Dorfstr., 63741 Damm, Deutschland", "kontakt@schaffenburg.org", "https://schaffenburg.org",,
Schafferei – Offene Werkstatt Göppingen e.V.,"73033 Göppingen, Deutschland", "info@schafferei.org", "https://www.schafferei.org/",,
Schmiede im Hof Berlin,"Pankstrasse, 13127 Berlin, Deutschland", "schmiedekurse@gmx.de", "http://www.schmiedekurse-berlin.de/",,
Schmiedfeuer Werkstatt und Beratung,"Freiligrathwall, 59494 Soest, Deutschland", "post@hellersand.de", "http://www.schmiedefeuer.eu",,
Schnittstelle,"Wandererstr., 90431 Nürnberg, Deutschland", "hello@weareyar.de", "http://www.weareyar.de",,
"schokowerkstatt, die|frauenmöbelwerkstatt","Mariannenstr. 6, 10997 Berlin - Kreuzberg, Deutschland", "info@schokowerkstatt.de", "https://schokowerkstatt.de",,
Schöpfwerk Eberswalde,"Schöpfurter Strasse, 16225 Eberswalde, Deutschland", "schoepfwerk@hebewerk-eberswalde.de", "https://schoepfwerk.wordpress.com",,
SDW-Neukölln,"Taborstr., 10997 Berlin, Deutschland", "druckerei@sdw-neukoelln.de", "http://www.sdw-neukoelln.de",,
SEKUNDÄR-SCHiCK,"Treskowallee, 10319 Berlin, Deutschland", "info@sekundaer-schick.de", "http://www.sekundaer-schick.de",,
Selfmade,"Leuthardstraße, 44135 Dortmund, Deutschland", "info@uk-buero-dortmund.de", "http://selfmadedortmund.de",,
shackspace,"Ulmer Str., 70327 Stuttgart, Deutschland", "kontakt@shackspace.de", "https://shackspace.de/",,
Siebdruck-Atelier Posa,"Kloster Posa, 06712 Zeitz, Deutschland", "siebdruck@kloster-posa.de", "http://www.kloster-posa.de",,
Siebdruckwerkstatt K4,"Königsstr., 90402 Nürnberg, Deutschland", "xirva@web.de", "https://www.kunstkulturquartier.de/",,
silberfabrik,"Elsässer Straße, 81667 München, Deutschland", "kontakt@silberfabrik.com", "http://www.silberfabrik.com",,
SLUB Makerspace,"Zellescher Weg, 01069 Dresden, Deutschland", "Paul.Schwanse@slub-dresden.de", "http://www.slub-dresden.de/service/arbeitsplaetze-arbeitsraeume/makerspace/",,
SonnenLAB,"Buchenweg, 72297 Seewald, Deutschland", "lab@sonnenwald.org", "https://lab.sonnenwald.org",,
Stadt-Teil-Werkstatt,"Kniesrtraße, 30167 Hannover (Nordstadt), Deutschland", "v.wilharm@werkstattschule.de", "http://www.stadt-teil-werkstatt.de",,
Stadtteilfabrik,"Altenbergstr., 45141 Essen, Deutschland", "mail@stadtteilfabrik.de", "http://www.stadtteilfabrik.de",,
"Station für Technik, Naturwissenschaften, Kunst Weißwasser e.V.","Professor-Wagenfeld-Ring, 02943 Weißwasser, Deutschland", "info@station-weisswasser.de", "http://www.station-weisswasser.de",,
Sternenlabor,"Senefelderstraße, 08523 Plauen, Deutschland", "kontakt@sternenlabor.de", "http://www.sternenlabor.de",,
Stoffdeck Co-Working Wilhelmsburg,"Am Veringhof, 21107 Hamburg, Deutschland", "info@stoffdeck.de", "http://www.stoffdeck.de",,
Stratum 0,"Hamburger Str. , 38114 Braunschweig, Deutschland", "kontakt@stratum0.org", "https://stratum0.org",,
Straze,"Stralsunder Strasse, 17489 Greifswald, Deutschland", "info@straze.de", "http://straze.de",,
streifenholz,"10405 Berlin, Deutschland", "info@streifenholz.de", "http://streifenholz.de",,
Studiwerkstatt Aachen e.V.,"Adalbertsteinweg, 52014 Aachen, Deutschland", "team@studenten-werkstatt.de", "https://www.studiwerkstatt.de/",,
Technikfreunde,"Am Alten Eisenwerk, 66740 Saarlouis, Deutschland", "dirkganster@gmail.com", "http://www.technikfreund.org",,
"Technikstützpunkt ""TechBil""","Rosa-Luxemburg Straße, 16303 Schwedt/Oder, Deutschland", "mail@techbil.de", "http://www.techbil.de",,
TH-Brandenburg,"Magdeburger Straße, 14770 Brandenburg an der Havel, Deutschland", "info@th-brandenburg.de", "https://offene-werkstatt.th-brandenburg.de/die-werkstatt/",,
the#Brake,"Valentinskamp, 20355 Hamburg, Deutschland", "info@thebrake.org", "http://www.thebrake.org",,
Toolbox Bodensee e.V.,"Bergheimer Str., 88677 Markdorf, Deutschland", "thomas.kekeisen@toolbox-bodesee.de", "http://toolbox-bodensee.de",,
ToolTime,"Ferdinand-Schultze-Straße, 13055 Berlin, Deutschland", "hallo@tooltime.berlin", "http://www.tooltime.berlin",,
Toppoint e.V.,"Fraunhoferstr., 24118 Kiel, Deutschland", "info@toppoint.de", "http://www.toppoint.de",,
Transition Town Augsburg,"Obstmarkt, 86152 Augsburg, Deutschland", "info@transition-town-augsburg.de", "http://www.transition-town-augsburg.de",,
Transition Town Witzenhausen - Projekthaus,"Brückenstraße, 37213 Witzenhausen, Deutschland", "info@ttwitzenhausen.de", "http://www.ttwitzenhausen.de",,
TransitionHaus Bayreuth,"Ludwigstr., 95444 Bayreuth, Deutschland", "repaircafe@buntstattbraun-bt.de", "http://transition-bayreuth.de/",,
tüd3l.eck,"Weingarten, 21481 Lauenburg/Elbe, Deutschland", "stefan.epping@lauenburg.de", "https://lokal.digital-sh.de/startseite/lauenburg/",,
Tüftelwerk,"Unterlachenstrasse, 6005 Luzern, Schweiz", "info@tueftelwerk.ch", "http://www.tueftelwerk.ch",,
Turbine,"Eisengasse, 6440 Ingenbohl, Schweiz", "info@turbine-brunnen.ch", "http://www.turbine-brunnen.ch",,
UN-Hack-Bar e.V.,"Morgenstrasse, 59423 Unna, Deutschland", "info@unhb.de", "https://www.un-hack-bar.de",,
UNIKAT,"Am Helmholtzring, 98693 Ilmenau, Deutschland", "unikat@tu-ilmenau.de", "https://www.tu-ilmenau.de/unikat/",,
Unternehmen Chance,"Von-Behring-Str., 88131 Lindau, Deutschland", "info@unternehmen-chance.de", "http://www.unternehmen-chance.de",,
UnternehmerTUM MakerSpace GmbH,"Lichtenbergstraße, 85748 Garching, Deutschland", "info@maker-space.de", "https://www.maker-space.de/",,
Upcyclingbörse Hannover,"Glockseestraße, 30169  Hannover, Deutschland", "gs@upcyclingboerse-hannover.de", "http://upcyclingboerse-hannover.de",,
Urban Lab,"Muggenhofer Straße, 90429 Nürnberg, Deutschland", "michael@fabfolk.com", "http://www.urbanlab-nuernberg.de",,
Urbanisten-Manufaktur,"Huckarder Straße, 44147 Dortmund, Deutschland", "manufaktur@dieurbanisten.de", "https://dieurbanisten.de/aktionsfelder/manufaktur/",,
UTOPIAwerkstatt,"Mirker Straße, 42105 Wuppertal, Deutschland", "info@devtal.de", "http://devtal.de/wiki/FabLab",,
Velo Café,"Landsbergerstraße, 81241 München, Deutschland", "verein@kupa-west.de", "http://www.kupa-west.de/kupa/velocafe.html",,
Verschwoerhaus,"Weinhof, 89073 Ulm, Deutschland", "kontakt18@verschwoerhaus.de", "https://verschwoerhaus.de/",,
Verstehbahnhof,"Bahnhofstrasse, 16798 Fürstenberg, Deutschland", "verein@havellab.org", "https://verstehbahnhof.de/",,
Vétomat,"Wühlischstr., 10245 Berlin, Deutschland", "werkstatt@vetomat.net", "https://cms.vetomat.net",,
ViNN:Lab,"Hochschulring, 15745 Wildau, Deutschland", "creativelab@th-wildau.de", "http://vinnlab.th-wildau.de/",,
VOLLDABEI Fahrrad-Reparatur-Café,"Sommestr., 86159 Augsburg, Deutschland", "kontakt@volldabei.org", "http://volldabei.org",,
"Von Herz zu Herz ""Nähherzen""","Kufsteiner Strasse , 83064 Raubling, Deutschland", "willkommen@von-herz-zu-herz.org", "http://www.von-herz-zu-herz.org",,
vspace.one,"Wilhelm-Binder-Str, 78048 Villingen-Schwenningen, Deutschland", "info@vspace.one", "http://www.vspace.one",,
wagnis-werkstatt,"Heinrich-Böll-Str., 81829 München, Deutschland", "werkstatt@nachbarschaftswerk-wagnis.org", "http://www.wagnis-werkstatt.org",,
Welcome Werkstatt e.V.,"Bachstraße, 22083 Hamburg, Deutschland", "info@welcome-werkstatt.de", "https://www.welcome-werkstatt.de",,
Werk 2,"Kochstraße, 04277  Leipzig, Deutschland", "info@werk-2.de", "https://www.werk-2.de/werkstaetten-kurse/werkstaetten/",,
Werk- und Kulturscheune Loitsche e.V.,"Stendaler Str., 39326 Loitsche-Heinrichsberg, Deutschland", "mail@werkundkultur.de", "http://www.werkundkultur.de",,
Werk-Stadtpiraten e.V.,"Jagdweg, 01159 Dresden, Deutschland", "werkstatt@notraces.net", "http://werkstadtpiraten.blogsport.de",,
Werk.Stadt.Laden.,"Jagdweg, 01159 Dresden, Deutschland", "post@werkstadtladen.de", "http://www.werkstadtladen.de",,
werkbox-VS,"Villinger Straße, 78054 Villingen-Schwenningen, Deutschland", "info@offene-werkstatt-vs.de", "http://www.offene-werkstatt-vs.de",,
WerkBox3 e.V.,"Grafingerstr., 81671 München, Deutschland", "info@werkbox3.de", "http://www.werkbox3.de",,
Werkhaus Potsdam,"Rudolf-Breitscheid-Straße, 14482 Potsdam, Deutschland", "info@werkhaus-potsdam.de", "http://werkhaus-potsdam.de",,
Werkimpuls,"Kandlgasse , 1070 Wien, Österreich", "office@werkimpuls.at", "http://www.werkimpuls.at",,
WERKRAUM Augsburg,"Provinostrasse, 86153 Augsburg, Deutschland", "kontakt@werkraum-augsburg.de", "http://www.werkraum-augsburg.de",,
Werksalon Co-Making Space,"Stadlauer Straße, 1220 Wien, Österreich", "info@werksalon.at", "http://www.werksalon.at",,
Werkschule Lambach,"Sand, 4650 Lambach, Österreich", "deine@werkschule.at", "https://www.werkschule.at/",,
WerkStadt,"Sandershäuser Straße, 34123 Kassel, Deutschland", "Info@sandershaus.de", "http://www.sandershaus.de",,
Werkstadthaus,"Aixer Str., 72072 Tübingen, Deutschland", "info@werkstadthaus.de", "http://www.werkstadthaus.de",,
Werkstatt Höflich,"Enhuberstrasse, 80333 München, Deutschland", "info@werkstatt-hoeflich.de", "http://werkstatt-hoeflich.de/offene-werkstatt/",,
Werkstatt im JUKUZ,"Kirchhofweg, 63739 Aschaffenburg, Deutschland", "werkstaetten@jukuz.de", "http://www.jukuz.de/freizeit-und-bildung/kreativ/kreativwerkstatt/",,
Werkstatt Lindenau,"Merseburger Straße, 04177 Lindenau, Deutschland", "werkstatt-lindenau@posteo.de", "http://werkstattlindenau.wordpress.com/",,
werkstattcouch,"Höttingergasse , 6020 Innsbruck, Österreich", "info@werkstattcouch.at", "http://www.werkstattcouch.at",,
Werkstätten im Horte-Soziales Zentrum,"Peter-Göring-Straße, 15344 Strausberg, Deutschland", "info@horte-srb.de", "http://horte-srb.de",,
Werkstätten im Museum Altranft,"Am Anger, 16259 Bad Freienwalde OT Altranft, Deutschland", "a.hartmann@museum-altranft.de", "http://www.museum-altranft.de/lernen-und-erleben/bildung/bildung-workshops.html",,
Werkstätten im Offenen Raum Traumschule Riebau,"Dorfstraße, 29410 Salzwedel / Riebau, Deutschland", "traumschule@riseup.net", "http://ts.blogsport.de/werkstaetten",,
Werkstatthaus,"Gerokstraße, 70188 Stuttgart, Deutschland", "info@werkstatthaus.net", "http://www.werkstatthaus.net",,
Werkstatthaus Allerhand e.V.,"Dorfstraße, 18249 Qualitz, Deutschland", "werkstatt@posteo.de", "http://www.allerhandverein.com",,
Werkstattraum,"Skalitzer Strasse, 10997 Berlin, Deutschland", "werkstatttraum@gmail.com", "https://www.werkstatttraum.com/",,
WIR - Werkstudio im Richardkiez,"Braunschweigerstr., 12055 Berlin, Deutschland", "ohse@online.de", "http://www.naehstudio-im-stadtteil.de",,
Wir bauen Zukunft,"Holzkruger Str., 19258 Gallin, Deutschland", "jetzt@wirbauenzukunft.de", "http://www.wirbauenzukunft.de",,
Wissenschaftsladen Potsdam e.V.,"freiLand
, Friedrich-Engels-Strasse 22, 14473 Potsdam, Deutschland", "info@wissenschaftsladen-potsdam.de", "http://www.wissenschaftsladen-potsdam.de",,
Wucholtzkys Werkraum,"Leipziger Straße, 90491 Nürnberg, Deutschland", "hallo@wucholtzky.de", "http://www.wucholtzky.de",,
Wunderhof Kreativwerkstatt,"Eckertsfeld 1, 92262 Birgland, Deutschland", "info@wunderhof.de", "http://www.wunderhof.de",,
Wurmloch,"Alte Münze 12, 49074 Osnabrück, Deutschland", "hallo@wurmloch.de", "http://www.wurmloch.de",,
xHain Hack + Makerspace,"Grünberger Straße, 10243 Berlin, Deutschland", "x-hain@posteo.de", "http://x-hain.de",,
XYZ CARGO // Till Wolfer / N55,"Till Wolfer, Caffamacherreihe, 20355 Hamburg, Deutschland", "till@n55.dk", "http://www.xyzcargo.com",,
Z-Bau Nordgarten,"Frankenstraße, 90461 Nürnberg, Deutschland", "kontakt@z-bau.com", "http://www.z-bau.com",,
Z-Bau Tüftelstube,"Frankenstraße, 90461 Nürnberg, Deutschland", "basti@urbanlab-nuernberg.de", "http://urbanlab-nuernberg.de",,
Zentrallabor,"Stockmeyerstraße , 20457  Hamburg, Deutschland", "hallo.welt@zentrallabor.bio", "http://www.zentrallabor.bio",,
ZTL - Zentrum für Technikkultur Landau,"Klaus-von-Klitzing-Str., 76829 Landau, Deutschland", "vorstand@ztl.space", "http://ztl.space",,
Zum Rostigen Ross,"Berliner Str., 01067  Dresden, Deutschland", "info@rostiges-ross.de", "https://www.rostiges-ross.de",,
zweirad:café,"Holzstraße 11, 72622  Nürtingen, Deutschland", "zweiradcafe@gmx.de", "http://www.zweiradcafe.de",,